0 FLOCK 4S 47
1 47685U 21006EL  24020.73771794  .00029412  00000-0  76612-3 0  9995
2 47685  97.3548  83.6828 0005601  39.5186 320.6466 15.38814221167025
0 FLOCK 4S 44
1 47686U 21006EM  24020.71496081  .00029930  00000-0  78161-3 0  9993
2 47686  97.3603  84.6291 0008335  33.5110 326.6661 15.38712425166071
0 FLOCK 4S 43
1 47687U 21006EN  24020.13416647  .00030250  00000-0  78263-3 0  9990
2 47687  97.3552  83.1618 0004901  58.6685 301.5040 15.39020110166923
0 FLOCK 4S 45
1 47688U 21006EP  24020.15746498  .00031403  00000-0  81753-3 0  9992
2 47688  97.3573  83.3485 0007127  18.4405 341.7098 15.38807858166928
0 FLOCK 4S 41
1 47698U 21006ER  24020.62666780  .00023362  00000-0  60830-3 0  9998
2 47698  97.3664  84.8467 0006427  32.1646 327.9990 15.38867036166042
0 FLOCK 4X 8
1 50992U 22002J   24020.14032824  .00031405  00000-0  86943-3 0  9999
2 50992  97.4148  94.2757 0006607 178.2874 181.8394 15.36908603112054
0 FLOCK 4X 44
1 50994U 22002L   24020.18903671  .00034552  00000-0  95422-3 0  9990
2 50994  97.4144  94.5065 0006598 181.8564 178.2657 15.36964879112062
0 FLOCK 4X 2
1 50996U 22002N   24020.15789157  .00031634  00000-0  87723-3 0  9993
2 50996  97.4136  94.3334 0006565 181.3468 178.7760 15.36855214112055
0 FLOCK 4X 20
1 50997U 22002P   24020.17943993  .00032449  00000-0  88851-3 0  9994
2 50997  97.4143  94.4475 0006362 177.9924 182.1347 15.37245370112062
0 FLOCK 4X 30
1 51000U 22002S   24020.14435637  .00032165  00000-0  88990-3 0  9997
2 51000  97.4085  93.8103 0006777 166.4295 193.7132 15.36922594112056
0 FLOCK 4X 22
1 51003U 22002V   24020.14829369  .00034102  00000-0  92245-3 0  9990
2 51003  97.4132  94.3413 0006268 181.3260 178.7969 15.37614599112061
0 FLOCK 4X 5
1 51004U 22002W   24020.78439648  .00028391  00000-0  78627-3 0  9999
2 51004  97.4095  94.5852 0007345 167.6171 192.5255 15.36913228112156
0 FLOCK 4X 41
1 51005U 22002X   24020.76699529  .00029134  00000-0  80636-3 0  9993
2 51005  97.4093  94.4568 0006807 163.3304 196.8165 15.36930939112156
0 FLOCK 4X 3
1 51006U 22002Y   24020.15757945  .00032202  00000-0  88458-3 0  9994
2 51006  97.4148  94.4677 0006476 175.1555 184.9753 15.37146485112067
0 FLOCK 4X 18
1 51007U 22002Z   24020.15738518  .00031472  00000-0  85623-3 0  9999
2 51007  97.4082  94.1785 0008583 166.5642 193.5833 15.37434650112074
0 FLOCK 4X 37
1 51009U 22002AB  24020.76469285  .00029504  00000-0  81513-3 0  9997
2 51009  97.4146  95.0977 0007677 182.8933 177.2268 15.36977934112153
0 FLOCK 4X 15
1 51010U 22002AC  24020.77051509  .00049271  00000-0  10649-2 0  9990
2 51010  97.4104  96.7432 0006581 157.9888 202.1644 15.44330640112262
0 FLOCK 4X 29
1 51011U 22002AD  24020.75292011  .00030724  00000-0  84196-3 0  9996
2 51011  97.4132  94.7060 0006952 167.5759 192.5658 15.37228144112157
0 FLOCK 4X 12
1 51015U 22002AH  24020.15283479  .00030638  00000-0  85590-3 0  9995
2 51015  97.4135  94.2799 0007894 175.1189 185.0134 15.36622840112051
0 FLOCK 4X 25
1 51016U 22002AJ  24020.17272479  .00036613  00000-0  95572-3 0  9996
2 51016  97.4084  94.4944 0007205 181.3831 178.7396 15.38692862112083
0 FLOCK 4X 1
1 51017U 22002AK  24020.19295637  .00027775  00000-0  77232-3 0  9992
2 51017  97.4100  94.0449 0007546 174.8147 185.3177 15.36790423112063
0 FLOCK 4X 42
1 51018U 22002AL  24020.19809857  .00030785  00000-0  85222-3 0  9991
2 51018  97.4074  93.8725 0007349 171.2223 188.9151 15.36909397112068
0 FLOCK 4X 16
1 51020U 22002AN  24020.17202873  .00033606  00000-0  92777-3 0  9995
2 51020  97.4102  93.9879 0007171 170.3282 189.8102 15.36978042112061
0 FLOCK 4X 38
1 51023U 22002AR  24020.18868710  .00032380  00000-0  89778-3 0  9992
2 51023  97.4139  94.4384 0007595 174.8476 185.2848 15.36848661112065
0 FLOCK 4X 32
1 51024U 22002AS  24020.15885440  .00028907  00000-0  82105-3 0  9996
2 51024  97.4164  94.4023 0007472 168.3523 191.7895 15.36119308112051
0 FLOCK 4X 26
1 51026U 22002AU  24020.15041777  .00029469  00000-0  81447-3 0  9997
2 51026  97.4113  94.1315 0007211 177.3230 182.8054 15.36969410112060
0 FLOCK 4X 43
1 51027U 22002AV  24020.17136352  .00032420  00000-0  89907-3 0  9994
2 51027  97.4096  94.0421 0007292 171.1632 188.9742 15.36843955112061
0 FLOCK 4X 13
1 51028U 22002AW  24020.77128399  .00027895  00000-0  77355-3 0  9997
2 51028  97.4107  94.6165 0007765 166.3732 193.7723 15.36872487112153
0 FLOCK 4X 39
1 51029U 22002AX  24020.19738995  .00026204  00000-0  72336-3 0  9990
2 51029  97.4101  94.1571 0006878 169.2191 190.9202 15.37032960112076
0 FLOCK 4X 17
1 51035U 22002BD  24020.17596854  .00030009  00000-0  83541-3 0  9999
2 51035  97.4148  94.2657 0004899 179.0275 181.0979 15.36755110112051
