OBJECT_NAME,OBJECT_ID,EPOCH,MEAN_MOTION,ECCENTRICITY,INCLINATION,RA_OF_ASC_NODE,ARG_OF_PERICENTER,MEAN_ANOMALY,EPHEMERIS_TYPE,CLASSIFICATION_TYPE,NORAD_CAT_ID,ELEMENT_SET_NO,REV_AT_EPOCH,BSTAR,MEAN_MOTION_DOT,MEAN_MOTION_DDOT
FLOCK 4S-47,2021-006EL,2024-01-20T17:42:18.830016,15.38814221,.0005601,97.3548,83.6828,39.5186,320.6466,0,U,47685,999,16605,.76612E-3,.29412E-3,0
FLOCK 4S-44,2021-006EM,2024-01-20T17:09:32.613984,15.38712425,.0008335,97.3603,84.6291,33.5110,326.6661,0,U,47686,999,16607,.78161E-3,.2993E-3,0
FLOCK 4S-43,2021-006EN,2024-01-20T03:13:11.983008,15.39020110,.0004901,97.3552,83.1618,58.6685,301.5040,0,U,47687,999,16692,.78263E-3,.3025E-3,0
FLOCK 4S-45,2021-006EP,2024-01-20T03:46:44.974272,15.38807858,.0007127,97.3573,83.3485,18.4405,341.7098,0,U,47688,999,16692,.81753E-3,.31403E-3,0
FLOCK 4S-41,2021-006ER,2024-01-20T15:02:24.097920,15.38867036,.0006427,97.3664,84.8467,32.1646,327.9990,0,U,47698,999,16604,.6083E-3,.23362E-3,0
FLOCK 4X-8,2022-002J,2024-01-20T03:22:04.359936,15.36908603,.0006607,97.4148,94.2757,178.2874,181.8394,0,U,50992,999,11205,.86943E-3,.31405E-3,0
FLOCK 4X-44,2022-002L,2024-01-20T04:32:12.771744,15.36964879,.0006598,97.4144,94.5065,181.8564,178.2657,0,U,50994,999,11206,.95422E-3,.34552E-3,0
FLOCK 4X-2,2022-002N,2024-01-20T03:47:21.831648,15.36855214,.0006565,97.4136,94.3334,181.3468,178.7760,0,U,50996,999,11205,.87723E-3,.31634E-3,0
FLOCK 4X-20,2022-002P,2024-01-20T04:18:23.609952,15.37245370,.0006362,97.4143,94.4475,177.9924,182.1347,0,U,50997,999,11206,.88851E-3,.32449E-3,0
FLOCK 4X-30,2022-002S,2024-01-20T03:27:52.390368,15.36922594,.0006777,97.4085,93.8103,166.4295,193.7132,0,U,51000,999,11205,.8899E-3,.32165E-3,0
FLOCK 4X-22,2022-002V,2024-01-20T03:33:32.574816,15.37614599,.0006268,97.4132,94.3413,181.3260,178.7969,0,U,51003,999,11206,.92245E-3,.34102E-3,0
FLOCK 4X-5,2022-002W,2024-01-20T18:49:31.855872,15.36913228,.0007345,97.4095,94.5852,167.6171,192.5255,0,U,51004,999,11215,.78627E-3,.28391E-3,0
FLOCK 4X-41,2022-002X,2024-01-20T18:24:28.393056,15.36930939,.0006807,97.4093,94.4568,163.3304,196.8165,0,U,51005,999,11215,.80636E-3,.29134E-3,0
FLOCK 4X-3,2022-002Y,2024-01-20T03:46:54.864480,15.37146485,.0006476,97.4148,94.4677,175.1555,184.9753,0,U,51006,999,11206,.88458E-3,.32202E-3,0
FLOCK 4X-18,2022-002Z,2024-01-20T03:46:38.079552,15.37434650,.0008583,97.4082,94.1785,166.5642,193.5833,0,U,51007,999,11207,.85623E-3,.31472E-3,0
FLOCK 4X-37,2022-002AB,2024-01-20T18:21:09.462240,15.36977934,.0007677,97.4146,95.0977,182.8933,177.2268,0,U,51009,999,11215,.81513E-3,.29504E-3,0
FLOCK 4X-15,2022-002AC,2024-01-20T18:29:32.503776,15.44330640,.0006581,97.4104,96.7432,157.9888,202.1644,0,U,51010,999,11226,.10649E-2,.49271E-3,0
FLOCK 4X-29,2022-002AD,2024-01-20T18:04:12.297504,15.37228144,.0006952,97.4132,94.7060,167.5759,192.5658,0,U,51011,999,11215,.84196E-3,.30724E-3,0
FLOCK 4X-12,2022-002AH,2024-01-20T03:40:04.925856,15.36622840,.0007894,97.4135,94.2799,175.1189,185.0134,0,U,51015,999,11205,.8559E-3,.30638E-3,0
FLOCK 4X-25,2022-002AJ,2024-01-20T04:08:43.421856,15.38692862,.0007205,97.4084,94.4944,181.3831,178.7396,0,U,51016,999,11208,.95572E-3,.36613E-3,0
FLOCK 4X-1,2022-002AK,2024-01-20T04:37:51.430368,15.36790423,.0007546,97.4100,94.0449,174.8147,185.3177,0,U,51017,999,11206,.77232E-3,.27775E-3,0
FLOCK 4X-42,2022-002AL,2024-01-20T04:45:15.716448,15.36909397,.0007349,97.4074,93.8725,171.2223,188.9151,0,U,51018,999,11206,.85222E-3,.30785E-3,0
FLOCK 4X-16,2022-002AN,2024-01-20T04:07:43.282272,15.36978042,.0007171,97.4102,93.9879,170.3282,189.8102,0,U,51020,999,11206,.92777E-3,.33606E-3,0
FLOCK 4X-38,2022-002AR,2024-01-20T04:31:42.565440,15.36848661,.0007595,97.4139,94.4384,174.8476,185.2848,0,U,51023,999,11206,.89778E-3,.3238E-3,0
FLOCK 4X-32,2022-002AS,2024-01-20T03:48:45.020160,15.36119308,.0007472,97.4164,94.4023,168.3523,191.7895,0,U,51024,999,11205,.82105E-3,.28907E-3,0
FLOCK 4X-26,2022-002AU,2024-01-20T03:36:36.095328,15.36969410,.0007211,97.4113,94.1315,177.3230,182.8054,0,U,51026,999,11206,.81447E-3,.29469E-3,0
FLOCK 4X-43,2022-002AV,2024-01-20T04:06:45.808128,15.36843955,.0007292,97.4096,94.0421,171.1632,188.9742,0,U,51027,999,11206,.89907E-3,.3242E-3,0
FLOCK 4X-13,2022-002AW,2024-01-20T18:30:38.936736,15.36872487,.0007765,97.4107,94.6165,166.3732,193.7723,0,U,51028,999,11215,.77355E-3,.27895E-3,0
FLOCK 4X-39,2022-002AX,2024-01-20T04:44:14.491680,15.37032960,.0006878,97.4101,94.1571,169.2191,190.9202,0,U,51029,999,11207,.72336E-3,.26204E-3,0
FLOCK 4X-17,2022-002BD,2024-01-20T04:13:23.681856,15.36755110,.0004899,97.4148,94.2657,179.0275,181.0979,0,U,51035,999,11205,.83541E-3,.30009E-3,0
